ONEWEB-0201             
1 48241U 21031AH  23307.17781384 -.00000211  00000+0 -60470-3 0  9995
2 48241  87.8938 120.2275 0001466  94.2492 265.8805 13.14502535122659
ONEWEB-0207             
1 48242U 21031AJ  23307.00024394 -.00000260  00000+0 -73510-3 0  9992
2 48242  87.8921 120.2299 0001654  93.0322 267.0997 13.14500443122546
ONEWEB-0208             
1 48243U 21031AK  23306.90191226 -.00000189  00000+0 -54417-3 0  9995
2 48243  87.8933 120.2655 0001308  96.1748 263.9531 13.14502836122545
ONEWEB-0200             
1 48244U 21031AL  23306.86595896  .00000204  00000+0  51484-3 0  9999
2 48244  87.8944 120.2654 0001286  96.8994 263.2281 13.14505371122465
ONEWEB-0217             
1 48245U 21031AM  23306.88287006 -.00000015  00000+0 -75178-4 0  9992
2 48245  87.8948 120.2472 0001135  94.5920 265.5339 13.14500791122410
ONEWEB-0211             
1 48767U 21045A   23306.91354981 -.00008725  00000+0 -23214-1 0  9994
2 48767  87.8961  89.7583 0001522  94.9075 265.2229 13.15599910118558
ONEWEB-0223             
1 48768U 21045B   23307.16389813  .00003083  00000+0  81534-2 0  9995
2 48768  87.8958  89.7126 0001433  69.6890 290.4394 13.15533313119710
ONEWEB-0230             
1 48769U 21045C   23306.90724895 -.00008945  00000+0 -23801-1 0  9996
2 48769  87.8967  89.8320 0001597  90.7215 269.4098 13.15594528118806
ONEWEB-0237             
1 48770U 21045D   23306.89616173 -.00014962  00000+0 -39792-1 0  9997
2 48770  87.8962  89.7518 0001274  69.5887 290.5380 13.15637374118527
ONEWEB-0235             
1 48771U 21045E   23306.87074405  .00009446  00000+0  25054-1 0  9997
2 48771  87.8963  89.7861 0001358  62.2833 297.8435 13.15488889118519
ONEWEB-0242             
1 48772U 21045F   23306.86440997  .00009291  00000+0  24640-1 0  9998
2 48772  87.8961  89.7784 0001519  86.2477 273.8827 13.15495391118550
ONEWEB-0241             
1 48773U 21045G   23306.92776225  .00009134  00000+0  24223-1 0  9995
2 48773  87.8971  89.7911 0001101  96.8061 263.3195 13.15495258118472
ONEWEB-0243             
1 48774U 21045H   23306.88340087  .00008727  00000+0  23142-1 0  9990
2 48774  87.8976  89.7572 0001507  76.2523 283.8775 13.15498036118496
ONEWEB-0222             
1 48775U 21045J   23306.87390764  .00021889  00000+0  58078-1 0  9997
2 48775  87.8954  89.7910 0001375  89.4640 270.6648 13.15422563118538
ONEWEB-0244             
1 48776U 21045K   23307.12113639 -.00001517  00000+0 -40641-2 0  9997
2 48776  87.8960  89.7239 0001529  92.5744 267.5561 13.15554898120259
ONEWEB-0247             
1 48777U 21045L   23306.88975086  .00008235  00000+0  21840-1 0  9993
2 48777  87.8975  89.7886 0001434  55.8430 304.2836 13.15490427118543
ONEWEB-0245             
1 48778U 21045M   23307.11318474  .00002698  00000+0  71309-2 0  9996
2 48778  87.8966  89.7526 0001238  99.6809 260.4461 13.15534268119677
ONEWEB-0229             
1 48779U 21045N   23307.10839860  .00017329  00000+0  45979-1 0  9993
2 48779  87.8966  89.7444 0001386  91.3251 268.8038 13.15448110119707
ONEWEB-0228             
1 48780U 21045P   23306.89216701 -.00000127  00000+0 -37222-3 0  9997
2 48780  87.8959  89.7665 0001498  89.5920 270.5382 13.15548983118465
ONEWEB-0232             
1 48781U 21045Q   23306.88817399  .00013470  00000+0  35752-1 0  9994
2 48781  87.8915  89.8223 0001731  96.6882 263.4446 13.15439438118786
ONEWEB-0231             
1 48782U 21045R   23306.86600131  .00002990  00000+0  79080-2 0  9995
2 48782  87.8973  89.8001 0001463  85.2427 274.8870 13.15532280118478
ONEWEB-0234             
1 48783U 21045S   23306.88895361  .00012353  00000+0  32770-1 0  9997
2 48783  87.8968  89.7735 0002105 140.2155 219.9129 13.15476659118610
ONEWEB-0238             
1 48784U 21045T   23306.90009137 -.00005684  00000+0 -15136-1 0  9997
2 48784  87.8965  89.7821 0001725  96.7812 263.3515 13.15579346118514
ONEWEB-0240             
1 48785U 21045U   23306.92464526 -.00002492  00000+0 -66534-2 0  9990
2 48785  87.8958  89.7525 0001378  89.9908 270.1380 13.15564519118547
ONEWEB-0246             
1 48786U 21045V   23306.91990390 -.00009110  00000+0 -24239-1 0  9992
2 48786  87.8963  89.7551 0001408  77.5048 282.6240 13.15598168118411
ONEWEB-0210             
1 48787U 21045W   23306.89457522 -.00007794  00000+0 -20737-1 0  9990
2 48787  87.8966  89.7688 0002869  65.6831 294.4598 13.15606067118455
ONEWEB-0214             
1 48788U 21045X   23307.13224643 -.00016848  00000+0 -44808-1 0  9990
2 48788  87.8977  89.7094 0002375  70.4432 289.6955 13.15640860119578
ONEWEB-0221             
1 48789U 21045Y   23307.13858270 -.00017572  00000+0 -46732-1 0  9993
2 48789  87.8988  89.7189 0001878  79.8727 280.2615 13.15646159119682
ONEWEB-0213             
1 48790U 21045Z   23306.89930638 -.00002932  00000+0 -78231-2 0  9990
2 48790  87.8965  89.7850 0001268  89.7056 270.4219 13.15564810118573
ONEWEB-0212             
1 48791U 21045AA  23307.11001463  .00015453  00000+0  40997-1 0  9999
2 48791  87.8965  89.7245 0001623 101.8299 258.3013 13.15461190119735
ONEWEB-0227             
1 48792U 21045AB  23306.87549529  .00015862  00000+0  42084-1 0  9995
2 48792  87.8966  89.7859 0001416  96.0605 264.0687 13.15455219119640
ONEWEB-0226             
1 48793U 21045AC  23306.86916301  .00015918  00000+0  42235-1 0  9991
2 48793  87.8954  89.7968 0001771  69.3131 290.8189 13.15454274119600
ONEWEB-0224             
1 48794U 21045AD  23306.90881571 -.00014735  00000+0 -39181-1 0  9991
2 48794  87.8971  89.7946 0001189 116.5415 243.5837 13.15646295118418
ONEWEB-0233             
1 48795U 21045AE  23306.90151740 -.00002398  00000+0 -64066-2 0  9993
2 48795  87.8915  89.8381 0001793  76.2387 283.8943 13.15528784118420
ONEWEB-0190             
1 48796U 21045AF  23306.90090028 -.00009141  00000+0 -24323-1 0  9999
2 48796  87.8955  89.7837 0001352  50.3962 309.7288 13.15596963118506
ONEWEB-0236             
1 48797U 21045AG  23306.91831784 -.00002775  00000+0 -74064-2 0  9997
2 48797  87.8968  89.7580 0001395  94.4545 265.6745 13.15565049119510
ONEWEB-0248             
1 48798U 21045AH  23306.93098168 -.00002112  00000+0 -56442-2 0  9996
2 48798  87.8960  89.7661 0000841  84.7749 275.3477 13.15561107118550
ONEWEB-0225             
1 48799U 21045AJ  23306.87707962  .00008625  00000+0  22876-1 0  9995
2 48799  87.8958  89.7859 0001140  76.3633 283.7625 13.15488145118557
ONEWEB-0215             
1 48800U 21045AK  23307.15122406  .00002649  00000+0  70016-2 0  9994
2 48800  87.8961  89.7103 0001004  57.7512 302.3715 13.15535973119588
ONEWEB-0216             
1 48801U 21045AL  23306.93255740 -.00009333  00000+0 -24831-1 0  9990
2 48801  87.8961  89.7921 0001754  83.0571 277.0758 13.15601321118446
ONEWEB-0239             
1 48802U 21045AM  23307.16549483 -.00002453  00000+0 -65489-2 0  9998
2 48802  87.8972  89.7013 0000724  72.2931 287.8279 13.15564618119655
ONEWEB-0249             
1 48967U 21060A   23306.87038563 -.00000157  00000+0 -44382-3 0  9995
2 48967  87.9080  59.3001 0001684 100.7404 259.3917 13.16593617113644
ONEWEB-0250             
1 48968U 21060B   23306.87461470  .00000011  00000+0 -57955-5 0  9993
2 48968  87.9077  59.2841 0001342  98.8282 261.3000 13.16596798113621
ONEWEB-0252             
1 48970U 21060D   23307.05406339  .00000040  00000+0  69945-4 0  9992
2 48970  87.9075  59.2565 0001724  95.0434 265.0894 13.16594639115005
ONEWEB-0253             
1 48971U 21060E   23306.81550429 -.00000025  00000+0 -99564-4 0  9991
2 48971  87.9004  59.3522 0001488  92.4557 267.6744 13.16592914114898
ONEWEB-0254             
1 48972U 21060F   23307.05194186 -.00000060  00000+0 -18990-3 0  9995
2 48972  87.9075  59.2464 0001426  92.2991 267.8303 13.16595865114928
ONEWEB-0255             
1 48973U 21060G   23306.86195891  .00002097  00000+0  54519-2 0  9994
2 48973  87.9078  59.3204 0002045  95.9071 264.2293 13.16583313113699
ONEWEB-0256             
1 48974U 21060H   23306.81128590 -.00000016  00000+0 -76279-4 0  9992
2 48974  87.9071  59.3323 0001827  97.1625 262.9714 13.16593304113651
ONEWEB-0257             
1 48975U 21060J   23306.84505964  .00000120  00000+0  28101-3 0  9994
2 48975  87.9077  59.2977 0001712  92.9777 267.1550 13.16592494113616
ONEWEB-0258             
1 48976U 21060K   23306.84716177 -.00000202  00000+0 -56100-3 0  9998
2 48976  87.9076  59.3263 0001514 100.9864 259.1438 13.16597748113626
ONEWEB-0259             
1 48977U 21060L   23306.84083342  .00000097  00000+0  22042-3 0  9998
2 48977  87.9076  59.3124 0001296 104.8089 255.3185 13.16596162113651
ONEWEB-0260             
1 48978U 21060M   23306.83450505  .00000033  00000+0  53767-4 0  9996
2 48978  87.9076  59.3442 0002263  84.7643 275.3746 13.16592759113633
ONEWEB-0261             
1 48979U 21060N   23306.87672309 -.00000022  00000+0 -90963-4 0  9998
2 48979  87.9074  59.3273 0001385  79.8329 280.2959 13.16594371113693
ONEWEB-0262             
1 48980U 21060P   23306.85774508  .00000670  00000+0  17182-2 0  9999
2 48980  87.9079  59.2959 0001230  99.9375 260.1895 13.16590415113650
ONEWEB-0263             
1 48981U 21060Q   23306.88938247 -.00000020  00000+0 -84943-4 0  9997
2 48981  87.9072  59.3041 0001244  87.0304 273.0969 13.16597312114921
ONEWEB-0264             
1 48982U 21060R   23307.07833918  .00000117  00000+0  27135-3 0  9993
2 48982  87.9083  59.2722 0001637  99.4606 260.6710 13.16595916114943
ONEWEB-0266             
1 48984U 21060T   23307.02449096 -.00000024  00000+0 -95565-4 0  9992
2 48984  87.9081  59.2679 0001612 104.4228 255.7082 13.16592565114937
ONEWEB-0267             
1 48985U 21060U   23307.03505815  .00000029  00000+0  43455-4 0  9990
2 48985  87.9077  59.2666 0001587  83.9362 276.1950 13.16593226114936
ONEWEB-0268             
1 48986U 21060V   23307.07936969  .00000201  00000+0  49164-3 0  9997
2 48986  87.9082  59.2616 0001630  99.3601 260.7714 13.16599881115205
